ONEWEB-0641             
1 55805U 23029K   23276.36180127 -.00000299  00000+0 -77945-3 0  9993
2 55805  87.9163 141.6034 0002073  71.3518 288.7840 13.19724368 28624
ONEWEB-0642             
1 55806U 23029L   23276.58452589  .00000086  00000+0  18345-3 0  9993
2 55806  87.9228 141.5323 0002720  58.2830 301.8568 13.19726124 28645
ONEWEB-0643             
1 55807U 23029M   23276.59328542  .00000092  00000+0  21407-3 0  9996
2 55807  87.8983 126.3186 0002363  47.6409 312.4920 13.14495530 29648
ONEWEB-0644             
1 55808U 23029N   23276.57979556  .00000080  00000+0  16677-3 0  9992
2 55808  87.9158 141.5462 0002269  63.2568 296.8796 13.19723991 28640
ONEWEB-0645             
1 55809U 23029P   23276.57582719  .00000065  00000+0  12978-3 0  9997
2 55809  87.9230 141.5298 0002423  74.3265 285.8135 13.19729127 28640
ONEWEB-0646             
1 55810U 23029Q   23276.60585239  .00000021  00000+0  20912-4 0  9993
2 55810  87.9231 141.5270 0001886  67.8001 292.3331 13.19724287 28632
ONEWEB-0648             
1 55811U 23029R   23276.55523308 -.00000007  00000+0 -54542-4 0  9999
2 55811  87.8961 126.2911 0002876  67.3254 292.8180 13.14506504 29643
ONEWEB-0649             
1 55812U 23029S   23276.56872939 -.00000022  00000+0 -86967-4 0  9991
2 55812  87.9145 141.5353 0002318  72.2656 287.8730 13.19724152 28663
